{
  "type": "FeatureCollection",
  "features": [
    {
      "type": "Feature",
      "properties": {
        "norad_id": 39617,
        "name": "ASTRA 5B (EGNOS/PRN 123)",
        "group": "gnss",
        "lat": 0.06439719400158822,
        "lon": 79.8743784739433,
        "alt_km": 35806.08987000583,
        "timestamp": "2025-12-07T22:37:43.321519+00:00",
        "meta_object_name": "ASTRA 5B (EGNOS/PRN 123)",
        "meta_object_id": "2014-011B",
        "meta_epoch": "2025-12-07T06:53:53.679840",
        "meta_mean_motion": 1.00269224,
        "meta_eccentricity": 0.00045744,
        "meta_inclination": 0.0526,
        "meta_ra_of_asc_node": 24.3713,
        "meta_arg_of_pericenter": 236.1294,
        "meta_mean_anomaly": 302.7822,
        "meta_ephemeris_type": 0,
        "meta_classification_type": "U",
        "meta_norad_cat_id": 39617,
        "meta_element_set_no": 999,
        "meta_rev_at_epoch": 4274,
        "meta_bstar": 0,
        "meta_mean_motion_dot": 1.41e-06,
        "meta_mean_motion_ddot": 0,
        "tle_line1": "1 39617U 14011B   25341.28742685  .00000141  00000+0  00000+0 0  9994",
        "tle_line2": "2 39617   0.0526  24.3713 0004574 236.1294 302.7822  1.00269224 42745"
      },
      "geometry": {
        "type": "Point",
        "coordinates": [
          79.8743784739433,
          0.06439719400158822
        ]
      }
    },
    {
      "type": "Feature",
      "properties": {
        "norad_id": 39620,
        "name": "COSMOS 2492 (754)",
        "group": "gnss",
        "lat": 42.577618788415904,
        "lon": -14.702671717206767,
        "alt_km": 19129.007741464007,
        "timestamp": "2025-12-07T22:37:43.321531+00:00",
        "meta_object_name": "COSMOS 2492 (754)",
        "meta_object_id": "2014-012A",
        "meta_epoch": "2025-12-06T22:36:05.505696",
        "meta_mean_motion": 2.13103091,
        "meta_eccentricity": 0.00141965,
        "meta_inclination": 65.4111,
        "meta_ra_of_asc_node": 320.4673,
        "meta_arg_of_pericenter": 311.6327,
        "meta_mean_anomaly": 48.2397,
        "meta_ephemeris_type": 0,
        "meta_classification_type": "U",
        "meta_norad_cat_id": 39620,
        "meta_element_set_no": 999,
        "meta_rev_at_epoch": 9114,
        "meta_bstar": 0,
        "meta_mean_motion_dot": -4.9e-07,
        "meta_mean_motion_ddot": 0,
        "tle_line1": "1 39620U 14012A   25340.94173039 -.00000049  00000+0  00000+0 0  9990",
        "tle_line2": "2 39620  65.4111 320.4673 0014196 311.6327  48.2397  2.13103091 91147"
      },
      "geometry": {
        "type": "Point",
        "coordinates": [
          -14.702671717206767,
          42.577618788415904
        ]
      }
    },
    {
      "type": "Feature",
      "properties": {
        "norad_id": 39635,
        "name": "IRNSS-1B",
        "group": "gnss",
        "lat": -20.971774038664098,
        "lon": 107.80055492793531,
        "alt_km": 35734.02415570198,
        "timestamp": "2025-12-07T22:37:43.321545+00:00",
        "meta_object_name": "IRNSS-1B",
        "meta_object_id": "2014-017A",
        "meta_epoch": "2025-12-06T19:04:03.146304",
        "meta_mean_motion": 1.00276623,
        "meta_eccentricity": 0.001765,
        "meta_inclination": 28.835,
        "meta_ra_of_asc_node": 243.6935,
        "meta_arg_of_pericenter": 183.3947,
        "meta_mean_anomaly": 349.8402,
        "meta_ephemeris_type": 0,
        "meta_classification_type": "U",
        "meta_norad_cat_id": 39635,
        "meta_element_set_no": 999,
        "meta_rev_at_epoch": 4286,
        "meta_bstar": 0,
        "meta_mean_motion_dot": 1.22e-06,
        "meta_mean_motion_ddot": 0,
        "tle_line1": "1 39635U 14017A   25340.79448086  .00000122  00000+0  00000+0 0  9992",
        "tle_line2": "2 39635  28.8350 243.6935 0017650 183.3947 349.8402  1.00276623 42867"
      },
      "geometry": {
        "type": "Point",
        "coordinates": [
          107.80055492793531,
          -20.971774038664098
        ]
      }
    },
    {
      "type": "Feature",
      "properties": {
        "norad_id": 39727,
        "name": "LUCH 5V (SDCM/PRN 141)",
        "group": "gnss",
        "lat": 4.587053096709498,
        "lon": 151.0859650439613,
        "alt_km": 35796.474868637546,
        "timestamp": "2025-12-07T22:37:43.321557+00:00",
        "meta_object_name": "LUCH 5V (SDCM/PRN 141)",
        "meta_object_id": "2014-023A",
        "meta_epoch": "2025-12-07T07:14:14.231904",
        "meta_mean_motion": 1.00270615,
        "meta_eccentricity": 0.00045947,
        "meta_inclination": 4.6554,
        "meta_ra_of_asc_node": 71.585,
        "meta_arg_of_pericenter": 202.6825,
        "meta_mean_anomaly": 5.396,
        "meta_ephemeris_type": 0,
        "meta_classification_type": "U",
        "meta_norad_cat_id": 39727,
        "meta_element_set_no": 999,
        "meta_rev_at_epoch": 4243,
        "meta_bstar": 0,
        "meta_mean_motion_dot": -2.66e-06,
        "meta_mean_motion_ddot": 0,
        "tle_line1": "1 39727U 14023A   25341.30155361 -.00000266  00000+0  00000+0 0  9990",
        "tle_line2": "2 39727   4.6554  71.5850 0004594 202.6825   5.3960  1.00270615 42435"
      },
      "geometry": {
        "type": "Point",
        "coordinates": [
          151.0859650439613,
          4.587053096709498
        ]
      }
    },
    {
      "type": "Feature",
      "properties": {
        "norad_id": 39741,
        "name": "GPS BIIF-6  (PRN 06)",
        "group": "gnss",
        "lat": -37.12151961233023,
        "lon": -51.02101301104441,
        "alt_km": 20083.5795242402,
        "timestamp": "2025-12-07T22:37:43.321569+00:00",
        "meta_object_name": "GPS BIIF-6  (PRN 06)",
        "meta_object_id": "2014-026A",
        "meta_epoch": "2025-12-07T00:13:30.638496",
        "meta_mean_motion": 2.00561616,
        "meta_eccentricity": 0.00390271,
        "meta_inclination": 56.5858,
        "meta_ra_of_asc_node": 338.9993,
        "meta_arg_of_pericenter": 318.3547,
        "meta_mean_anomaly": 41.3608,
        "meta_ephemeris_type": 0,
        "meta_classification_type": "U",
        "meta_norad_cat_id": 39741,
        "meta_element_set_no": 999,
        "meta_rev_at_epoch": 8468,
        "meta_bstar": 0,
        "meta_mean_motion_dot": -8e-07,
        "meta_mean_motion_ddot": 0,
        "tle_line1": "1 39741U 14026A   25341.00938239 -.00000080  00000+0  00000+0 0  9993",
        "tle_line2": "2 39741  56.5858 338.9993 0039027 318.3547  41.3608  2.00561616 84684"
      },
      "geometry": {
        "type": "Point",
        "coordinates": [
          -51.02101301104441,
          -37.12151961233023
        ]
      }
    },
    {
      "type": "Feature",
      "properties": {
        "norad_id": 40001,
        "name": "COSMOS 2500 (755)",
        "group": "gnss",
        "lat": -64.67856776882815,
        "lon": -115.85857665763882,
        "alt_km": 19124.752455890644,
        "timestamp": "2025-12-07T22:37:43.321581+00:00",
        "meta_object_name": "COSMOS 2500 (755)",
        "meta_object_id": "2014-032A",
        "meta_epoch": "2025-12-07T02:44:10.438080",
        "meta_mean_motion": 2.13105901,
        "meta_eccentricity": 0.00081625,
        "meta_inclination": 65.3466,
        "meta_ra_of_asc_node": 320.2241,
        "meta_arg_of_pericenter": 219.2555,
        "meta_mean_anomaly": 140.6795,
        "meta_ephemeris_type": 0,
        "meta_classification_type": "U",
        "meta_norad_cat_id": 40001,
        "meta_element_set_no": 999,
        "meta_rev_at_epoch": 8936,
        "meta_bstar": 0,
        "meta_mean_motion_dot": -4.9e-07,
        "meta_mean_motion_ddot": 0,
        "tle_line1": "1 40001U 14032A   25341.11400970 -.00000049  00000+0  00000+0 0  9994",
        "tle_line2": "2 40001  65.3466 320.2241 0008162 219.2555 140.6795  2.13105901 89367"
      },
      "geometry": {
        "type": "Point",
        "coordinates": [
          -115.85857665763882,
          -64.67856776882815
        ]
      }
    },
    {
      "type": "Feature",
      "properties": {
        "norad_id": 40105,
        "name": "GPS BIIF-7  (PRN 09)",
        "group": "gnss",
        "lat": -51.065323940566145,
        "lon": -24.713170059223245,
        "alt_km": 20244.73056114706,
        "timestamp": "2025-12-07T22:37:43.321592+00:00",
        "meta_object_name": "GPS BIIF-7  (PRN 09)",
        "meta_object_id": "2014-045A",
        "meta_epoch": "2025-12-05T14:26:16.975968",
        "meta_mean_motion": 2.00571979,
        "meta_eccentricity": 0.00328896,
        "meta_inclination": 55.2248,
        "meta_ra_of_asc_node": 96.1837,
        "meta_arg_of_pericenter": 119.6741,
        "meta_mean_anomaly": 240.6258,
        "meta_ephemeris_type": 0,
        "meta_classification_type": "U",
        "meta_norad_cat_id": 40105,
        "meta_element_set_no": 999,
        "meta_rev_at_epoch": 8219,
        "meta_bstar": 0,
        "meta_mean_motion_dot": -1.2e-07,
        "meta_mean_motion_ddot": 0,
        "tle_line1": "1 40105U 14045A   25339.60158537 -.00000012  00000+0  00000+0 0  9993",
        "tle_line2": "2 40105  55.2248  96.1837 0032889 119.6741 240.6258  2.00571979 82198"
      },
      "geometry": {
        "type": "Point",
        "coordinates": [
          -24.713170059223245,
          -51.065323940566145
        ]
      }
    }
  ]
}